NORAD_CAT_ID,OBJECT_NAME,OBJECT_TYPE,EPOCH,MEAN_MOTION,ECCENTRICITY,INCLINATION,RA_OF_ASC_NODE,ARG_OF_PERICENTER,MEAN_ANOMALY,BSTAR,MEAN_MOTION_DOT,MEAN_MOTION_DDOT,TLE_LINE0,TLE_LINE1,TLE_LINE2,SEMIMAJOR_AXIS,PERIOD,APOGEE,PERIGEE,DECAYED
50161.0,STARLINK-3304,PAYLOAD,2022-10-13 12:16:59,15.08835131,0.0002158,53.2169,79.9576,41.3085,318.807,-2.7267e-05,-7.22e-06,0.0,0 STARLINK-3304,1 50161U 21125F   22286.51180552 -.00000722  00000-0 -27267-4 0  9992,2 50161  53.2169  79.9576 0002158  41.3085 318.8070 15.08835131 48779,6917.895,95.438,541.253,538.2669999999998,0.0
50161.0,STARLINK-3304,PAYLOAD,2022-10-13 20:13:55,15.08835615,0.0002143,53.2183,78.4721,33.5518,326.5609,6.9397e-05,8.16e-06,0.0,0 STARLINK-3304,1 50161U 21125F   22286.84300477  .00000816  00000-0  69397-4 0  9990,2 50161  53.2183  78.4721 0002143  33.5518 326.5609 15.08835615 48343,6917.894,95.438,541.241,538.276,0.0
50161.0,STARLINK-3304,PAYLOAD,2022-10-14 12:07:47,15.08836232,0.0002171999999999,53.2181,75.4986,34.0075,326.1056,0.00011272,1.506e-05,0.0,0 STARLINK-3304,1 50161U 21125F   22287.50540531  .00001506  00000-0  11272-3 0  9996,2 50161  53.2181  75.4986 0002172  34.0075 326.1056 15.08836232 48929,6917.892,95.438,541.259,538.254,0.0
50161.0,STARLINK-3304,PAYLOAD,2022-10-14 16:53:56,15.08838013,0.0002185,53.2181,74.6066,34.5618,325.5516,0.00012243,1.661e-05,0.0,0 STARLINK-3304,1 50161U 21125F   22287.70412457  .00001661  00000-0  12243-3 0  9994,2 50161  53.2181  74.6066 0002185  34.5618 325.5516 15.08838013 48957,6917.886,95.438,541.263,538.24,0.0
50161.0,STARLINK-3304,PAYLOAD,2022-10-15 11:58:34,15.08834225,0.0002301,53.213,71.0331,31.237,328.8758,4.5242e-05,4.32e-06,0.0,0 STARLINK-3304,1 50161U 21125F   22288.49901177  .00000432  00000-0  45242-4 0  9994,2 50161  53.2130  71.0331 0002301  31.2370 328.8758 15.08834225 49075,6917.898,95.438,541.355,538.1709999999998,0.0
50161.0,STARLINK-3304,PAYLOAD,2022-10-15 18:20:07,15.0882851,0.0002186,53.2183,69.8481,31.5441,328.5682,2.5583e-06,-2.48e-06,0.0,0 STARLINK-3304,1 50161U 21125F   22288.76397606 -.00000248  00000-0  25583-5 0  9993,2 50161  53.2183  69.8481 0002186  31.5441 328.5682 15.08828510 49115,6917.916,95.438,541.293,538.268,0.0
50161.0,STARLINK-3304,PAYLOAD,2022-10-16 02:17:03,15.08824316,0.0002302,53.2179,68.3619,32.803000000000004,327.3105,-7.926e-05,-1.549e-05,0.0,0 STARLINK-3304,1 50161U 21125F   22289.09518353 -.00001549  00000-0 -79260-4 0  9990,2 50161  53.2179  68.3619 0002302  32.8030 327.3105 15.08824316 48683,6917.928000000001,95.439,541.386,538.201,0.0
50161.0,STARLINK-3304,PAYLOAD,2022-10-16 11:49:22,15.08830108,0.0002286,53.2165,66.5752,21.2547,338.8540000000001,-5.0761e-05,-1.096e-05,0.0,0 STARLINK-3304,1 50161U 21125F   22289.49262153 -.00001096  00000-0 -50761-4 0  9990,2 50161  53.2165  66.5752 0002286  21.2547 338.8540 15.08830108 49229,6917.911,95.438,541.357,538.194,0.0
50161.0,STARLINK-3304,PAYLOAD,2022-10-16 18:10:54,15.08840011,0.0002237,53.2175,65.3867,25.9579,334.1525,4.0396e-05,3.55e-06,0.0,0 STARLINK-3304,1 50161U 21125F   22289.75757352  .00000355  00000-0  40396-4 0  9997,2 50161  53.2175  65.3867 0002237  25.9579 334.1525 15.08840011 48782,6917.88,95.438,541.293,538.198,0.0
50161.0,STARLINK-3304,PAYLOAD,2022-10-17 02:07:49,15.08852473,0.0002254999999999,53.2176,63.8999,29.9649,330.1472,-6.450399999999999e-05,-1.315e-05,0.0,0 STARLINK-3304,1 50161U 21125F   22290.08876774 -.00001315  00000-0 -64504-4 0  9991,2 50161  53.2176  63.8999 0002255  29.9649 330.1472 15.08852473 48832,6917.842,95.437,541.2669999999998,538.1469999999998,0.0
50161.0,STARLINK-3304,PAYLOAD,2022-10-17 08:29:22,15.08838462,0.0002645,53.2178,62.7121,33.3751,326.7408,3.6676e-05,2.95e-06,0.0,0 STARLINK-3304,1 50161U 21125F   22290.35373662  .00000295  00000-0  36676-4 0  9992,2 50161  53.2178  62.7121 0002645  33.3751 326.7408 15.08838462 48871,6917.885,95.438,541.58,537.92,0.0
50161.0,STARLINK-3304,PAYLOAD,2022-10-17 13:15:32,15.088317000000002,0.0002469,53.2179,61.82,30.9839,329.1298,0.00014095,1.955e-05,0.0,0 STARLINK-3304,1 50161U 21125F   22290.55245836  .00001955  00000-0  14095-3 0  9999,2 50161  53.2179  61.8200 0002469  30.9839 329.1298 15.08831700 49383,6917.906,95.438,541.479,538.063,0.0
50161.0,STARLINK-3304,PAYLOAD,2022-10-17 18:01:41,15.08837525,0.0002434,53.218,60.9279,38.8175,321.2991,0.00021997,3.214e-05,0.0,0 STARLINK-3304,1 50161U 21125F   22290.75117529  .00003214  00000-0  21997-3 0  9997,2 50161  53.2180  60.9279 0002434  38.8175 321.2991 15.08837525 49411,6917.888000000001,95.438,541.437,538.069,0.0
50161.0,STARLINK-3304,PAYLOAD,2022-10-18 08:20:10,15.0883786,0.0002359,53.2177,58.2515,36.0219,324.0931,9.6804e-05,1.253e-05,0.0,0 STARLINK-3304,1 50161U 21125F   22291.34733839  .00001253  00000-0  96804-4 0  9992,2 50161  53.2177  58.2515 0002359  36.0219 324.0931 15.08837860 49502,6917.887,95.438,541.384,538.12,0.0
50161.0,STARLINK-3304,PAYLOAD,2022-10-18 11:30:56,15.08831327,0.0002456,53.2184,57.6575,36.26300000000001,323.8529,5.8314e-05,6.4e-06,0.0,0 STARLINK-3304,1 50161U 21125F   22291.47982562  .00000640  00000-0  58314-4 0  9998,2 50161  53.2184  57.6575 0002456  36.2630 323.8529 15.08831327 49047,6917.906999999997,95.438,541.471,538.073,0.0
50161.0,STARLINK-3304,PAYLOAD,2022-10-18 14:41:43,15.08829602,0.0002479,53.2184,57.0627,36.3413,323.7747,3.7118e-05,3.02e-06,0.0,0 STARLINK-3304,1 50161U 21125F   22291.61230774  .00000302  00000-0  37118-4 0  9999,2 50161  53.2184  57.0627 0002479  36.3413 323.7747 15.08829602 49543,6917.9119999999975,95.438,541.492,538.062,0.0
50161.0,STARLINK-3304,PAYLOAD,2022-10-19 11:21:43,15.08843938,0.0002535,53.2187,53.1978,35.8414,324.2748,0.0001147999999999,1.539e-05,0.0,0 STARLINK-3304,1 50161U 21125F   22292.47341817  .00001539  00000-0  11480-3 0  9991,2 50161  53.2187  53.1978 0002535  35.8414 324.2748 15.08843938 49679,6917.868,95.437,541.487,537.98,0.0
50161.0,STARLINK-3304,PAYLOAD,2022-10-19 17:43:15,15.08847609,0.0002289,53.2187,52.006,28.6915,331.4203,0.00010302,1.352e-05,0.0,0 STARLINK-3304,1 50161U 21125F   22292.73837594  .00001352  00000-0  10302-3 0  9997,2 50161  53.2187  52.0060 0002289  28.6915 331.4203 15.08847609 49711,6917.857,95.437,541.306,538.139,0.0
50161.0,STARLINK-3304,PAYLOAD,2022-10-20 11:12:30,15.08844052,0.0002571,53.2175,48.7367,31.9997,328.1151,0.00017567,2.509e-05,0.0,0 STARLINK-3304,1 50161U 21125F   22293.46701647  .00002509  00000-0  17567-3 0  9992,2 50161  53.2175  48.7367 0002571  31.9997 328.1151 15.08844052 49827,6917.868,95.437,541.512,537.9540000000002,0.0
50161.0,STARLINK-3304,PAYLOAD,2022-10-20 17:34:02,15.08842317,0.0002569999999999,53.2177,47.5474,30.8743,329.24,0.00019121,2.756e-05,0.0,0 STARLINK-3304,1 50161U 21125F   22293.73197733  .00002756  00000-0  19121-3 0  9999,2 50161  53.2177  47.5474 0002570  30.8743 329.2400 15.08842317 49866,6917.873000000001,95.437,541.516,537.96,0.0
50161.0,STARLINK-3304,PAYLOAD,2022-10-21 11:03:17,15.08843912,0.0002419,53.2177,44.2744,30.9261,329.1873,8.5006e-07,-2.75e-06,0.0,0 STARLINK-3304,1 50161U 21125F   22294.46061948 -.00000275  00000-0  85006-6 0  9991,2 50161  53.2177  44.2744 0002419  30.9261 329.1873 15.08843912 49975,6917.868,95.437,541.4069999999998,538.06,0.0
50161.0,STARLINK-3304,PAYLOAD,2022-10-21 19:00:12,15.08846031,0.0002440999999999,53.2189,42.789,30.7052,329.4083,1.8847e-05,1.2e-07,0.0,0 STARLINK-3304,1 50161U 21125F   22294.79181630  .00000012  00000-0  18847-4 0  9993,2 50161  53.2189  42.7890 0002441  30.7052 329.4083 15.08846031 49548,6917.861999999999,95.437,541.4159999999998,538.038,0.0
50161.0,STARLINK-3304,PAYLOAD,2022-10-21 23:46:21,15.08862614,0.0002379,53.219,41.8968,30.4046,329.7083,-0.00015036,-2.682e-05,0.0,0 STARLINK-3304,1 50161U 21125F   22294.99052768 -.00002682  00000-0 -15036-3 0  9997,2 50161  53.2190  41.8968 0002379  30.4046 329.7083 15.08862614 49577,6917.811,95.436,541.322,538.031,0.0
50161.0,STARLINK-3304,PAYLOAD,2022-10-22 14:04:51,15.08836348,0.0002467,53.2193,39.2217,30.9446,329.1691,-0.00016559,-2.923e-05,0.0,0 STARLINK-3304,1 50161U 21125F   22295.58670843 -.00002923  00000-0 -16559-3 0  9992,2 50161  53.2193  39.2217 0002467  30.9446 329.1691 15.08836348 49669,6917.892,95.438,541.4630000000002,538.05,0.0
50161.0,STARLINK-3304,PAYLOAD,2022-10-22 15:40:14,15.08831844,0.0002469,53.2197,38.9251,30.0804,330.033,-0.00010521,-1.962e-05,0.0,0 STARLINK-3304,1 50161U 21125F   22295.65294932 -.00001962  00000-0 -10521-3 0  9996,2 50161  53.2197  38.9251 0002469  30.0804 330.0330 15.08831844 50151,6917.905,95.438,541.4780000000002,538.062,0.0
50161.0,STARLINK-3304,PAYLOAD,2022-10-22 23:37:09,15.08838121,0.0002483,53.2192,37.4367,28.4241,331.6886,5.7651e-05,6.29e-06,0.0,0 STARLINK-3304,1 50161U 21125F   22295.98414150  .00000629  00000-0  57651-4 0  9991,2 50161  53.2192  37.4367 0002483  28.4241 331.6886 15.08838121 49729,6917.886,95.438,541.469,538.033,0.0
50161.0,STARLINK-3304,PAYLOAD,2022-10-23 10:44:50,15.08850955,0.0002517,53.2195,35.3561,30.8708,329.2432,0.00017889,2.561e-05,0.0,0 STARLINK-3304,1 50161U 21125F   22296.44780964  .00002561  00000-0  17889-3 0  9997,2 50161  53.2195  35.3561 0002517  30.8708 329.2432 15.08850955 50279,6917.847,95.437,541.453,537.971,0.0
50161.0,STARLINK-3304,PAYLOAD,2022-10-23 15:31:00,15.08852108,0.0002517,53.2197,34.4642,31.9494,328.165,0.00020188,2.927e-05,0.0,0 STARLINK-3304,1 50161U 21125F   22296.64652809  .00002927  00000-0  20188-3 0  9997,2 50161  53.2197  34.4642 0002517  31.9494 328.1650 15.08852108 50301,6917.843000000003,95.437,541.45,537.967,0.0
50161.0,STARLINK-3304,PAYLOAD,2022-10-23 23:27:56,15.08846097,0.0002364,53.2198,32.9779,38.3012,321.8148,0.00014193,1.972e-05,0.0,0 STARLINK-3304,1 50161U 21125F   22296.97773248  .00001972  00000-0  14193-3 0  9992,2 50161  53.2198  32.9779 0002364  38.3012 321.8148 15.08846097 49875,6917.861999999999,95.437,541.362,538.091,0.0
